NOAA 18                 
1 28654U 05018A   23024.38132791  .00000334  00000+0  20322-3 0  9995
2 28654  98.9261  99.3921 0015054  69.1493 291.1289 14.12847554911264
